{
    "links": {
        "self": "http://www.neowsapp.com/rest/v1/neo/3789607?api_key=iIulBulltgU6a56xZRHN4H3l9WmuAYTsLGpBGhQ2"
    },
    "id": "3789607",
    "neo_reference_id": "3789607",
    "name": "(2017 WU12)",
    "designation": "2017 WU12",
    "nasa_jpl_url": "http://ssd.jpl.nasa.gov/sbdb.cgi?sstr=3789607",
    "absolute_magnitude_h": 22.1,
    "estimated_diameter": {
        "kilometers": {
            "estimated_diameter_min": 0.1010543415,
            "estimated_diameter_max": 0.2259643771
        },
        "meters": {
            "estimated_diameter_min": 101.054341542,
            "estimated_diameter_max": 225.9643771094
        },
        "miles": {
            "estimated_diameter_min": 0.0627922373,
            "estimated_diameter_max": 0.140407711
        },
        "feet": {
            "estimated_diameter_min": 331.5431259047,
            "estimated_diameter_max": 741.3529669956
        }
    },
    "is_potentially_hazardous_asteroid": false,
    "close_approach_data": [
        {
            "close_approach_date": "2017-06-02",
            "close_approach_date_full": "2017-Jun-02 09:58",
            "epoch_date_close_approach": 1496397480000,
            "relative_velocity": {
                "kilometers_per_second": "19.1724579941",
                "kilometers_per_hour": "69020.8487788241",
                "miles_per_hour": "42886.8712870421"
            },
            "miss_distance": {
                "astronomical": "0.2326100606",
                "lunar": "90.4853135734",
                "kilometers": "34797969.606330922",
                "miles": "21622455.6667818436"
            },
            "orbiting_body": "Earth"
        },
        {
            "close_approach_date": "2017-11-09",
            "close_approach_date_full": "2017-Nov-09 14:30",
            "epoch_date_close_approach": 1510237800000,
            "relative_velocity": {
                "kilometers_per_second": "17.8376078299",
                "kilometers_per_hour": "64215.3881877872",
                "miles_per_hour": "39900.9449547948"
            },
            "miss_distance": {
                "astronomical": "0.4076690492",
                "lunar": "158.5832601388",
                "kilometers": "60986421.425245204",
                "miles": "37895205.0496396552"
            },
            "orbiting_body": "Earth"
        }
    ],
    "orbital_data": {
        "orbit_id": "2",
        "orbit_determination_date": "2017-12-30 06:30:56",
        "first_observation_date": "2017-11-19",
        "last_observation_date": "2017-11-22",
        "data_arc_in_days": 3,
        "observations_used": 18,
        "orbit_uncertainty": "9",
        "minimum_orbit_intersection": ".0499074",
        "jupiter_tisserand_invariant": "4.741",
        "epoch_osculation": "2458077.5",
        "eccentricity": ".3477059718996244",
        "semi_major_axis": "1.310931207033852",
        "inclination": "34.93149511990227",
        "ascending_node_longitude": "240.3727297422829",
        "orbital_period": "548.2369213025794",
        "perihelion_distance": ".8551125975985989",
        "perihelion_argument": "54.69480494228192",
        "aphelion_distance": "1.766749816469105",
        "perihelion_time": "2457949.685725252998",
        "mean_anomaly": "83.92929611452681",
        "mean_motion": ".6566504115495554",
        "equinox": "J2000",
        "orbit_class": {
            "orbit_class_type": "APO",
            "orbit_class_description": "Near-Earth asteroid orbits which cross the Earth’s orbit similar to that of 1862 Apollo",
            "orbit_class_range": "a (semi-major axis) > 1.0 AU; q (perihelion) < 1.017 AU"
        }
    },
    "is_sentry_object": false
}